start=new Date('2021-09-11T00:00:00.000Z').valueOf();
sats=[{"EPHEMERIS_TYPE":"0","OBJECT_TYPE":"PAYLOAD","OBJECT_NAME":"STARLINK-1484","COUNTRY_CODE":"US","ELEMENT_SET_NO":"999","GP_ID":"184473026","CLASSIFICATION_TYPE":"U","RA_OF_ASC_NODE":"22.7002","DECAY_DATE":null,"MEAN_MOTION_DOT":"0.00001595","MEAN_MOTION_DDOT":"0.0000000000000","SEMIMAJOR_AXIS":"6925.347","SITE":"AFETR","PERIOD":"95.592","MEAN_MOTION":"15.06400653","FILE":"3112758","MEAN_ANOMALY":"247.2717","TLE_LINE2":"2 45756  53.0559  22.7002 0001131 112.8392 247.2717 15.06400653 69152","NORAD_CAT_ID":"45756","PERIAPSIS":"546.428","CENTER_NAME":"EARTH","EPOCH":"2021-09-10T20:04:13.835136","REF_FRAME":"TEME","TIME_SYSTEM":"UTC","REV_AT_EPOCH":"6915","APOAPSIS":"547.995","MEAN_ELEMENT_THEORY":"SGP4","INCLINATION":"53.0559","ARG_OF_PERICENTER":"112.8392","ECCENTRICITY":"0.00011310","BSTAR":"0.00012596000000","RCS_SIZE":"LARGE","LAUNCH_DATE":"2020-06-13","OBJECT_ID":"2020-038AC","TLE_LINE1":"1 45756U 20038AC  21253.83627124  .00001595  00000-0  12596-3 0  9992"},{"EPHEMERIS_TYPE":"0","OBJECT_TYPE":"PAYLOAD","GP_ID":"184471774","CLASSIFICATION_TYPE":"U","ELEMENT_SET_NO":"999","COUNTRY_CODE":"US","OBJECT_NAME":"STARLINK-1486","DECAY_DATE":null,"RA_OF_ASC_NODE":"22.6223","MEAN_MOTION_DDOT":"0.0000000000000","MEAN_MOTION_DOT":"-0.00000525","SEMIMAJOR_AXIS":"6925.346","MEAN_MOTION":"15.06400965","FILE":"3112758","PERIOD":"95.592","SITE":"AFETR","CENTER_NAME":"EARTH","NORAD_CAT_ID":"45757","TLE_LINE2":"2 45757  53.0556  22.6223 0001957  82.5697 277.5515 15.06400965 69159","PERIAPSIS":"545.855","MEAN_ANOMALY":"277.5515","TIME_SYSTEM":"UTC","REF_FRAME":"TEME","EPOCH":"2021-09-10T20:30:45.977184","REV_AT_EPOCH":"6915","APOAPSIS":"548.566","MEAN_ELEMENT_THEORY":"SGP4","BSTAR":"-0.00001636700000","ECCENTRICITY":"0.00019570","INCLINATION":"53.0556","ARG_OF_PERICENTER":"82.5697","RCS_SIZE":"LARGE","LAUNCH_DATE":"2020-06-13","OBJECT_ID":"2020-038AD","TLE_LINE1":"1 45757U 20038AD  21253.85469881 -.00000525  00000-0 -16367-4 0  9994"},{"MEAN_MOTION_DDOT":"0.0000000000000","MEAN_MOTION_DOT":"0.00001508","DECAY_DATE":null,"RA_OF_ASC_NODE":"22.9525","GP_ID":"184472024","CLASSIFICATION_TYPE":"U","ELEMENT_SET_NO":"999","COUNTRY_CODE":"US","OBJECT_NAME":"STARLINK-1487","EPHEMERIS_TYPE":"0","OBJECT_TYPE":"PAYLOAD","MEAN_MOTION":"15.06399960","FILE":"3112758","PERIOD":"95.592","SITE":"AFETR","SEMIMAJOR_AXIS":"6925.349","APOAPSIS":"548.295","MEAN_ELEMENT_THEORY":"SGP4","REV_AT_EPOCH":"6914","TIME_SYSTEM":"UTC","REF_FRAME":"TEME","EPOCH":"2021-09-10T18:44:36.281472","CENTER_NAME":"EARTH","PERIAPSIS":"546.133","TLE_LINE2":"2 45758  53.0570  22.9525 0001561 100.4679 259.6486 15.06399960 69144","NORAD_CAT_ID":"45758","MEAN_ANOMALY":"259.6486","TLE_LINE1":"1 45758U 20038AE  21253.78097548  .00001508  00000-0  12009-3 0  9992","OBJECT_ID":"2020-038AE","LAUNCH_DATE":"2020-06-13","RCS_SIZE":"LARGE","BSTAR":"0.00012009000000","ECCENTRICITY":"0.00015610","ARG_OF_PERICENTER":"100.4679","INCLINATION":"53.0570"},{"REV_AT_EPOCH":"6915","APOAPSIS":"548.177","MEAN_ELEMENT_THEORY":"SGP4","CENTER_NAME":"EARTH","TLE_LINE2":"2 45759  53.0546  22.7438 0001354 109.7890 250.3245 15.06391504 69154","NORAD_CAT_ID":"45759","PERIAPSIS":"546.302","MEAN_ANOMALY":"250.3245","TIME_SYSTEM":"UTC","REF_FRAME":"TEME","EPOCH":"2021-09-10T19:53:37.415328","LAUNCH_DATE":"2020-06-13","OBJECT_ID":"2020-038AF","TLE_LINE1":"1 45759U 20038AF  21253.82890527 -.00000272  00000-0  65541-6 0  9996","BSTAR":"0.00000065541000","ECCENTRICITY":"0.00013540","ARG_OF_PERICENTER":"109.7890","INCLINATION":"53.0546","RCS_SIZE":"LARGE","DECAY_DATE":null,"RA_OF_ASC_NODE":"22.7438","MEAN_MOTION_DDOT":"0.0000000000000","MEAN_MOTION_DOT":"-0.00000272","EPHEMERIS_TYPE":"0","OBJECT_TYPE":"PAYLOAD","GP_ID":"184472776","CLASSIFICATION_TYPE":"U","ELEMENT_SET_NO":"999","COUNTRY_CODE":"US","OBJECT_NAME":"STARLINK-1493","MEAN_MOTION":"15.06391504","FILE":"3112758","PERIOD":"95.593","SITE":"AFETR","SEMIMAJOR_AXIS":"6925.375"},{"REV_AT_EPOCH":"6915","MEAN_ELEMENT_THEORY":"SGP4","APOAPSIS":"548.282","PERIAPSIS":"546.127","TLE_LINE2":"2 45760  53.0562  23.0208 0001556 104.8654 255.2507 15.06403077 69155","NORAD_CAT_ID":"45760","CENTER_NAME":"EARTH","MEAN_ANOMALY":"255.2507","REF_FRAME":"TEME","TIME_SYSTEM":"UTC","EPOCH":"2021-09-10T18:23:22.572672","LAUNCH_DATE":"2020-06-13","OBJECT_ID":"2020-038AG","TLE_LINE1":"1 45760U 20038AG  21253.76623348  .00001081  00000-0  91432-4 0  9990","BSTAR":"0.00009143200000","ARG_OF_PERICENTER":"104.8654","INCLINATION":"53.0562","ECCENTRICITY":"0.00015560","RCS_SIZE":"LARGE","DECAY_DATE":null,"RA_OF_ASC_NODE":"23.0208","MEAN_MOTION_DDOT":"0.0000000000000","MEAN_MOTION_DOT":"0.00001081","OBJECT_TYPE":"PAYLOAD","EPHEMERIS_TYPE":"0","ELEMENT_SET_NO":"999","GP_ID":"184473526","CLASSIFICATION_TYPE":"U","OBJECT_NAME":"STARLINK-1494","COUNTRY_CODE":"US","MEAN_MOTION":"15.06403077","FILE":"3112758","SITE":"AFETR","PERIOD":"95.592","SEMIMAJOR_AXIS":"6925.339"},{"EPOCH":"2021-09-10T19:26:20.012640","REF_FRAME":"TEME","TIME_SYSTEM":"UTC","MEAN_ANOMALY":"313.0152","PERIAPSIS":"438.544","TLE_LINE2":"2 45761  53.0559  15.9592 0001667  47.0992 313.0152 15.42179344 69262","NORAD_CAT_ID":"45761","CENTER_NAME":"EARTH","APOAPSIS":"440.817","MEAN_ELEMENT_THEORY":"SGP4","REV_AT_EPOCH":"6926","RCS_SIZE":"LARGE","INCLINATION":"53.0559","ARG_OF_PERICENTER":"47.0992","ECCENTRICITY":"0.00016670","BSTAR":"0.00004598800000","TLE_LINE1":"1 45761U 20038AH  21253.80995385  .00001591  00000-0  45988-4 0  9990","OBJECT_ID":"2020-038AH","LAUNCH_DATE":"2020-06-13","OBJECT_NAME":"STARLINK-1495","COUNTRY_CODE":"US","ELEMENT_SET_NO":"999","GP_ID":"184472274","CLASSIFICATION_TYPE":"U","EPHEMERIS_TYPE":"0","OBJECT_TYPE":"PAYLOAD","MEAN_MOTION_DOT":"0.00001591","MEAN_MOTION_DDOT":"0.0000000000000","RA_OF_ASC_NODE":"15.9592","DECAY_DATE":null,"SEMIMAJOR_AXIS":"6817.816","SITE":"AFETR","PERIOD":"93.374","FILE":"3112758","MEAN_MOTION":"15.42179344"},{"SITE":"AFETR","PERIOD":"95.593","FILE":"3112758","MEAN_MOTION":"15.06381713","SEMIMAJOR_AXIS":"6925.405","RA_OF_ASC_NODE":"23.1530","DECAY_DATE":null,"MEAN_MOTION_DOT":"-0.00000182","MEAN_MOTION_DDOT":"0.0000000000000","EPHEMERIS_TYPE":"0","OBJECT_TYPE":"PAYLOAD","OBJECT_NAME":"STARLINK-1499","COUNTRY_CODE":"US","ELEMENT_SET_NO":"999","GP_ID":"184472524","CLASSIFICATION_TYPE":"U","LAUNCH_DATE":"2020-06-13","OBJECT_ID":"2020-038AJ","TLE_LINE1":"1 45762U 20038AJ  21253.73676975 -.00000182  00000-0  66757-5 0  9998","ARG_OF_PERICENTER":"108.5028","INCLINATION":"53.0558","ECCENTRICITY":"0.00014360","BSTAR":"0.00000667570000","RCS_SIZE":"LARGE","REV_AT_EPOCH":"6915","MEAN_ELEMENT_THEORY":"SGP4","APOAPSIS":"548.264","MEAN_ANOMALY":"251.6117","PERIAPSIS":"546.275","TLE_LINE2":"2 45762  53.0558  23.1530 0001436 108.5028 251.6117 15.06381713 69153","NORAD_CAT_ID":"45762","CENTER_NAME":"EARTH","EPOCH":"2021-09-10T17:40:56.906400","REF_FRAME":"TEME","TIME_SYSTEM":"UTC"},{"LAUNCH_DATE":"2020-06-13","OBJECT_ID":"2020-038AK","TLE_LINE1":"1 45763U 20038AK  21253.67775793  .00003743  00000-0  40953-4 0  9994","ARG_OF_PERICENTER":"26.7445","INCLINATION":"53.0556","ECCENTRICITY":"0.00030800","BSTAR":"0.00004095300000","RCS_SIZE":"LARGE","REV_AT_EPOCH":"6979","MEAN_ELEMENT_THEORY":"SGP4","APOAPSIS":"371.801","MEAN_ANOMALY":"333.3728","NORAD_CAT_ID":"45763","TLE_LINE2":"2 45763  53.0556 350.5576 0003080  26.7445 333.3728 15.66224149 69791","PERIAPSIS":"367.644","CENTER_NAME":"EARTH","EPOCH":"2021-09-10T16:15:58.285152","REF_FRAME":"TEME","TIME_SYSTEM":"UTC","SITE":"AFETR","PERIOD":"91.941","MEAN_MOTION":"15.66224149","FILE":"3112758","SEMIMAJOR_AXIS":"6747.857","RA_OF_ASC_NODE":"350.5576","DECAY_DATE":null,"MEAN_MOTION_DOT":"0.00003743","MEAN_MOTION_DDOT":"0.0000000000000","OBJECT_TYPE":"PAYLOAD","EPHEMERIS_TYPE":"0","OBJECT_NAME":"STARLINK-1501","COUNTRY_CODE":"US","ELEMENT_SET_NO":"999","GP_ID":"184473276","CLASSIFICATION_TYPE":"U"},{"SEMIMAJOR_AXIS":"6925.362","FILE":"3112758","MEAN_MOTION":"15.06395622","PERIOD":"95.592","SITE":"AFETR","GP_ID":"184473027","CLASSIFICATION_TYPE":"U","ELEMENT_SET_NO":"999","COUNTRY_CODE":"US","OBJECT_NAME":"STARLINK-1502","EPHEMERIS_TYPE":"0","OBJECT_TYPE":"PAYLOAD","MEAN_MOTION_DDOT":"0.0000000000000","MEAN_MOTION_DOT":"-0.00000410","DECAY_DATE":null,"RA_OF_ASC_NODE":"22.5820","RCS_SIZE":"LARGE","BSTAR":"-0.00000864420000","ECCENTRICITY":"0.00010380","INCLINATION":"53.0549","ARG_OF_PERICENTER":"113.2062","TLE_LINE1":"1 45764U 20038AL  21253.86207712 -.00000410  00000-0 -86442-5 0  9991","OBJECT_ID":"2020-038AL","LAUNCH_DATE":"2020-06-13","TIME_SYSTEM":"UTC","REF_FRAME":"TEME","EPOCH":"2021-09-10T20:41:23.463168","CENTER_NAME":"EARTH","TLE_LINE2":"2 45764  53.0549  22.5820 0001038 113.2062 246.9036 15.06395622 69172","PERIAPSIS":"546.508","NORAD_CAT_ID":"45764","MEAN_ANOMALY":"246.9036","APOAPSIS":"547.946","MEAN_ELEMENT_THEORY":"SGP4","REV_AT_EPOCH":"6917"},{"OBJECT_ID":"2020-038AM","LAUNCH_DATE":"2020-06-13","TLE_LINE1":"1 45765U 20038AM  21253.72016803  .00200594  00000-0  23736-2 0  9993","ARG_OF_PERICENTER":"54.8991","INCLINATION":"53.0559","ECCENTRICITY":"0.00013930","BSTAR":"0.00237360000000","RCS_SIZE":"LARGE","REV_AT_EPOCH":"6930","APOAPSIS":"388.308","MEAN_ELEMENT_THEORY":"SGP4","MEAN_ANOMALY":"305.2152","PERIAPSIS":"386.423","TLE_LINE2":"2 45765  53.0559  12.5014 0001393  54.8991 305.2152 15.60101581 69305","NORAD_CAT_ID":"45765","CENTER_NAME":"EARTH","EPOCH":"2021-09-10T17:17:02.517792","REF_FRAME":"TEME","TIME_SYSTEM":"UTC","SITE":"AFETR","PERIOD":"92.302","MEAN_MOTION":"15.60101581","FILE":"3112758","SEMIMAJOR_AXIS":"6765.500","RA_OF_ASC_NODE":"12.5014","DECAY_DATE":null,"MEAN_MOTION_DOT":"0.00200594","MEAN_MOTION_DDOT":"0.0000000000000","EPHEMERIS_TYPE":"0","OBJECT_TYPE":"PAYLOAD","OBJECT_NAME":"STARLINK-1508","COUNTRY_CODE":"US","ELEMENT_SET_NO":"999","GP_ID":"184471775","CLASSIFICATION_TYPE":"U"}];
